#aV2009 10 17  0  0   .00000000      96 DD+AD WGS84 FIT  NGA
## 1553 518400.00000000   900.00000000 55121  .0000000000000
+   32     1  2  3  4  5  6  7  8  9 10 11 12 13 14 15 16 17
+         18 19 20 21 22 23 24 25 26 27 28 29 30 31 32  0  0
+          0  0  0  0  0  0  0  0  0  0  0  0  0  0  0  0  0
+          0  0  0  0  0  0  0  0  0  0  0  0  0  0  0  0  0
+          0  0  0  0  0  0  0  0  0  0  0  0  0  0  0  0  0
++         0  0  0  0  0  0  0  0  0  0  0  0  0  0  0  0  0
++         0  0  0  0  0  0  0  0  0  0  0  0  0  0  0  0  0
++         0  0  0  0  0  0  0  0  0  0  0  0  0  0  0  0  0
++         0  0  0  0  0  0  0  0  0  0  0  0  0  0  0  0  0
++         0  0  0  0  0  0  0  0  0  0  0  0  0  0  0  0  0
%c cc cc ccc ccc cccc cccc cccc cccc ccccc ccccc ccccc ccccc
%c cc cc ccc ccc cccc cccc cccc cccc ccccc ccccc ccccc ccccc
%f  0.0000000  0.000000000  0.00000000000  0.000000000000000
%f  0.0000000  0.000000000  0.00000000000  0.000000000000000
%i    0    0    0    0      0      0      0      0         0
%i    0    0    0    0      0      0      0      0         0
/*      NGA, ST. LOUIS,MO.                                  
/*   EPHEMERIS COMPUTED FROM  3 DAYS OF DATA                
/* CCCCCCCCCCCCCCCCCCCCCCCCCCCCCCCCCCCCCCCCCCCCCCCCCCCCCCCCC
/* CCCCCCCCCCCCCCCCCCCCCCCCCCCCCCCCCCCCCCCCCCCCCCCCCCCCCCCCC
*  2009 10 17  3  0   .00000000                                                 
P  1 -10884.516631 -17307.241204 -17111.579076    -60.664621                    
V  1  20524.461039   6572.319440 -19720.559634      -.014137                    
P  2  22664.300241 -11613.643028  -6787.552448    181.750680                    
V  2  -4553.775015   8196.283038 -29959.849155       .037058                    
P  3 -12501.651358  11631.645691  19923.728724    461.665371                    
V  3  -7849.305459 -25118.524932   9927.576635       .052107                    
P  4  21847.916701  -2620.182897 -15280.220950   -314.527232                    
V  4 -13844.807302  13258.027731 -21920.624804      -.177563                    
P  5  18432.999215  -6133.100649  18132.340899    -63.778902                    
V  5  20723.190961  10142.216648 -17553.089714       .086299                    
P  6 -14479.648046   7611.363396  21093.334793    253.629262                    
V  6  -5392.695178 -25942.338981   5801.845677       .040823                    
P  7   3558.528144  15573.634735  21176.395490      9.469217                    
V  7 -21815.549828  15803.273928  -8099.656472      -.007059                    
P  8  15282.054826   6244.957100  20895.417440       .471909                    
V  8 -21716.208891  15020.247595  10866.285753      -.086729                    
P  9  12775.310366 -20535.282847 -11571.505569     83.416520                    
V  9  11727.715855  -7275.366331  27487.543128       .020844                    
P 10  20730.877835  -3405.784054  16282.301428    -26.067862                    
V 10  18354.693088  10081.459303 -20716.424614      -.008905                    
P 11  -7533.839555  22910.942642 -10950.464515    -24.623062                    
V 11 -12331.639694   7795.579373  25701.026284      -.018834                    
P 12   3446.919866 -14788.916932 -21743.222682   -203.400695                    
V 12  25606.270290  10588.770560  -3014.277593       .054605                    
P 13   5982.035499  24992.003695   6551.578847    305.674002                    
V 13  -1124.641905   8559.084141 -31048.554989       .002639                    
P 14 -13515.382937 -13122.647083 -18643.163306    -36.709761                    
V 14  -1097.476202 -23838.066097  17322.572004       .050212                    
P 15   8842.431724 -19014.614779  16283.030517   -320.221879                    
V 15   4997.250211  20156.500385  20936.548804      -.003006                    
P 16 -23312.899768   -566.204011  12985.317783      1.682486                    
V 16 -14156.310104  -8306.803995 -25625.891203      -.040269                    
P 17  14379.080679  12676.791845 -18397.415666     93.787808                    
V 17   1183.236632  23452.723511  16821.155131       .033114                    
P 18 -16372.323036 -17253.568522  12449.393364     20.731217                    
V 18  15010.470141   3957.902577  25372.355876       .027840                    
P 19  -9249.578998  19976.108801  14701.948637      5.946451                    
V 19  -3357.315287 -18556.610194  23438.419865      -.017855                    
P 20    788.273102  16608.029418 -20845.321002     69.809158                    
V 20 -24817.546935  -8610.145606  -7795.059749      -.008686                    
P 21  -8661.543093 -13384.704601  21508.819849    -15.578001                    
V 21  21758.790380 -15611.837243  -1594.162170      -.023062                    
P 22 -23675.186977 -12042.216289   1654.766968    188.508598                    
V 22   3163.607921  -2370.144274  31091.083377      -.009381                    
P 23  -1375.040492  25537.584668  -6586.209239    387.386091                    
V 23  -3684.234528  -7991.279741 -30652.876468      -.004831                    
P 24   6973.751510 -19484.344892  16906.033418    229.126627                    
V 24  18442.442515 -10554.880960 -19660.584186       .030417                    
P 25  -3161.500870  19680.573164  17986.045359    633.917458                    
V 25 -17023.772843  14089.358207 -18581.092208       .136562                    
P 26 -10749.887393 -19753.656491 -14264.932404      7.760592                    
V 26    339.645827 -17408.470235  25255.073356      -.014009                    
P 27  16666.906448 -19582.748325  -5870.975664     91.981372                    
V 27   7885.510007  -3632.939868  30948.763411       .033275                    
P 28  22612.860743  13650.169997   4539.208707    -25.874681                    
V 28  -5622.733300    -81.746107  31016.880703       .001762                    
P 29  -5242.262173 -25815.893450   3657.472230     66.605972                    
V 29   2278.541130  -4785.614905 -31262.484685       .031696                    
P 30  -9004.917370 -17254.952128 -18487.291819    185.489132                    
V 30  21835.943847   6353.110862 -16860.959015       .030481                    
P 31 -22113.799087   5339.454800 -13612.403620    -62.797257                    
V 31  12813.408323 -12144.165040 -25050.511217       .006467                    
P 32  -8097.028729  12687.074100 -21491.455845    176.416728                    
V 32 -24920.184802 -13240.746091   1827.591456      -.073262                    
EOF
